NORAD_CAT_ID,OBJECT_NAME,OBJECT_TYPE,EPOCH,MEAN_MOTION,ECCENTRICITY,INCLINATION,RA_OF_ASC_NODE,ARG_OF_PERICENTER,MEAN_ANOMALY,BSTAR,MEAN_MOTION_DOT,MEAN_MOTION_DDOT,TLE_LINE0,TLE_LINE1,TLE_LINE2,SEMIMAJOR_AXIS,PERIOD,APOGEE,PERIGEE,DECAYED
52849.0,STARLINK-4197,PAYLOAD,2022-12-02 17:21:21,15.08839932,0.0003546,53.2186,339.5521,25.3682,334.7483,4.5689e-05,4.38e-06,0.0,0 STARLINK-4197,1 52849U 22062V   22336.72316399  .00000438  00000-0  45689-4 0  9997,2 52849  53.2186 339.5521 0003546  25.3682 334.7483 15.08839932 26319,6917.880999999999,95.438,542.1990000000002,537.293,0.0
52849.0,STARLINK-4197,PAYLOAD,2022-12-03 07:39:49,15.08840982,0.0003477,53.2191,336.8759,25.8135,334.30300000000005,0.00011562,1.552e-05,0.0,0 STARLINK-4197,1 52849U 22062V   22337.31932317  .00001552  00000-0  11562-3 0  9997,2 52849  53.2191 336.8759 0003477  25.8135 334.3030 15.08840982 25915,6917.877,95.437,542.148,537.337,0.0
52849.0,STARLINK-4197,PAYLOAD,2022-12-03 17:12:07,15.08850065,0.0003581,53.2193,335.0915,26.4329,333.6845,0.00012444,1.693e-05,0.0,0 STARLINK-4197,1 52849U 22062V   22337.71675651  .00001693  00000-0  12444-3 0  9992,2 52849  53.2193 335.0915 0003581  26.4329 333.6845 15.08850065 26460,6917.85,95.437,542.192,537.237,0.0
52849.0,STARLINK-4197,PAYLOAD,2022-12-04 01:09:03,15.0884259,0.0003556,53.2204,333.6046,27.84800000000001,332.2701,0.00013811,1.91e-05,0.0,0 STARLINK-4197,1 52849U 22062V   22338.04796159  .00001910  00000-0  13811-3 0  9997,2 52849  53.2204 333.6046 0003556  27.8480 332.2701 15.08842590 26513,6917.871999999999,95.437,542.197,537.2769999999998,0.0
52849.0,STARLINK-4197,PAYLOAD,2022-12-04 07:30:36,15.08843817,0.0003466,53.2198,332.4157,27.3114,332.806,8.572899999999999e-05,1.076e-05,0.0,0 STARLINK-4197,1 52849U 22062V   22338.31292135  .00001076  00000-0  85729-4 0  9993,2 52849  53.2198 332.4157 0003466  27.3114 332.8060 15.08843817 26061,6917.869000000002,95.437,542.131,537.336,0.0
52849.0,STARLINK-4197,PAYLOAD,2022-12-04 17:02:55,15.08835193,0.0003577,53.2196,330.6317,27.7325,332.3858,6.0751e-05,6.78e-06,0.0,0 STARLINK-4197,1 52849U 22062V   22338.71036860  .00000678  00000-0  60751-4 0  9993,2 52849  53.2196 330.6317 0003577  27.7325 332.3858 15.08835193 26617,6917.895,95.438,542.235,537.286,0.0
52849.0,STARLINK-4197,PAYLOAD,2022-12-05 02:35:14,15.08844314,0.0003476,53.2192,328.8468,27.3436,332.7739,0.00012203,1.654e-05,0.0,0 STARLINK-4197,1 52849U 22062V   22339.10780173  .00001654  00000-0  12203-3 0  9993,2 52849  53.2192 328.8468 0003476  27.3436 332.7739 15.08844314 26679,6917.8669999999975,95.437,542.137,537.328,0.0
52849.0,STARLINK-4197,PAYLOAD,2022-12-05 08:56:46,15.08840956,0.0003407,53.2189,327.6584,26.5292,333.5874,6.4219e-05,7.33e-06,0.0,0 STARLINK-4197,1 52849U 22062V   22339.37276272  .00000733  00000-0  64219-4 0  9994,2 52849  53.2189 327.6584 0003407  26.5292 333.5874 15.08840956 26224,6917.877,95.437,542.099,537.386,0.0
52849.0,STARLINK-4197,PAYLOAD,2022-12-05 16:53:42,15.08842529,0.0003465,53.2189,326.1714,29.0398,331.0786,3.6204e-05,2.87e-06,0.0,0 STARLINK-4197,1 52849U 22062V   22339.70396242  .00000287  00000-0  36204-4 0  9998,2 52849  53.2189 326.1714 0003465  29.0398 331.0786 15.08842529 26270,6917.873000000001,95.437,542.135,537.341,0.0
52849.0,STARLINK-4197,PAYLOAD,2022-12-06 05:36:47,15.08851087,0.0003591,53.2185,323.7926,27.1376,332.9804,0.00024193,3.565e-05,0.0,0 STARLINK-4197,1 52849U 22062V   22340.23387760  .00003565  00000-0  24193-3 0  9998,2 52849  53.2185 323.7926 0003591  27.1376 332.9804 15.08851087 26842,6917.847,95.437,542.196,537.227,0.0
52849.0,STARLINK-4197,PAYLOAD,2022-12-06 10:22:56,15.08842694,0.0003645,53.2177,322.9013,24.7861,335.3306,8.9891e-05,1.142e-05,0.0,0 STARLINK-4197,1 52849U 22062V   22340.43260072  .00001142  00000-0  89891-4 0  9992,2 52849  53.2177 322.9013 0003645  24.7861 335.3306 15.08842694 26874,6917.871999999999,95.437,542.259,537.216,0.0
52849.0,STARLINK-4197,PAYLOAD,2022-12-07 08:38:21,15.08837636,0.0003827,53.2193,318.7399,21.7178,338.3976,-8.7027e-06,-4.28e-06,0.0,0 STARLINK-4197,1 52849U 22062V   22341.35996668 -.00000428  00000-0 -87027-5 0  9999,2 52849  53.2193 318.7399 0003827  21.7178 338.3976 15.08837636 27015,6917.888000000001,95.438,542.4,537.105,0.0
52849.0,STARLINK-4197,PAYLOAD,2022-12-08 08:29:08,15.08845326,0.0003601,53.2185,314.2774,26.6814,333.4363,0.00023848,3.510000000000001e-05,0.0,0 STARLINK-4197,1 52849U 22062V   22342.35356497  .00003510  00000-0  23848-3 0  9992,2 52849  53.2185 314.2774 0003601  26.6814 333.4363 15.08845326 26677,6917.864000000001,95.437,542.22,537.238,0.0
52849.0,STARLINK-4197,PAYLOAD,2022-12-08 14:50:40,15.08851038,0.0003601,53.2182,313.0882,26.4734,333.6442,0.0003495,5.28e-05,0.0,0 STARLINK-4197,1 52849U 22062V   22342.61852275  .00005280  00000-0  34950-3 0  9998,2 52849  53.2182 313.0882 0003601  26.4734 333.6442 15.08851038 27207,6917.847,95.437,542.203,537.221,0.0
52849.0,STARLINK-4197,PAYLOAD,2022-12-09 08:19:54,15.08860224,0.0003467,53.2186,309.8203,30.885,329.2346,0.00019718,2.853e-05,0.0,0 STARLINK-4197,1 52849U 22062V   22343.34715540  .00002853  00000-0  19718-3 0  9990,2 52849  53.2186 309.8203 0003467  30.8850 329.2346 15.08860224 26827,6917.819,95.436,542.082,537.285,0.0
52849.0,STARLINK-4197,PAYLOAD,2022-12-09 21:03:00,15.0882191,0.0003403,53.2186,307.4381,29.5373,330.5811,-0.00045003,-7.441e-05,0.0,0 STARLINK-4197,1 52849U 22062V   22343.87708695 -.00007441  00000-0 -45003-3 0  9997,2 52849  53.2186 307.4381 0003403  29.5373 330.5811 15.08821910 27397,6917.936,95.439,542.155,537.447,0.0
52849.0,STARLINK-4197,PAYLOAD,2022-12-10 06:35:19,15.0881875,0.0003437,53.2183,305.6536,23.7756,336.3394,-0.00029042,-4.906e-05,0.0,0 STARLINK-4197,1 52849U 22062V   22344.27453406 -.00004906  00000-0 -29042-3 0  9997,2 52849  53.2183 305.6536 0003437  23.7756 336.3394 15.08818750 26964,6917.945,95.439,542.188,537.433,0.0
52849.0,STARLINK-4197,PAYLOAD,2022-12-11 06:26:07,15.08841077,0.0003767,53.2172,301.1971,24.4732,335.6438,0.00071138,0.00011053,0.0,0 STARLINK-4197,1 52849U 22062V   22345.26814208  .00011053  00000-0  71138-3 0  9990,2 52849  53.2172 301.1971 0003767  24.4732 335.6438 15.08841077 27605,6917.877,95.437,542.3480000000002,537.136,0.0
52849.0,STARLINK-4197,PAYLOAD,2022-12-11 09:36:53,15.08840679,0.0003986,53.217,300.6023,24.1552,335.9626,0.00055313,8.526e-05,0.0,0 STARLINK-4197,1 52849U 22062V   22345.40062289  .00008526  00000-0  55313-3 0  9998,2 52849  53.2170 300.6023 0003986  24.1552 335.9626 15.08840679 27132,6917.878000000002,95.438,542.501,536.986,0.0
52849.0,STARLINK-4197,PAYLOAD,2022-12-11 20:44:35,15.08852504,0.0003971,53.2174,298.5202,24.8515,335.2668,0.00063282,9.802e-05,0.0,0 STARLINK-4197,1 52849U 22062V   22345.86429949  .00009802  00000-0  63282-3 0  9990,2 52849  53.2174 298.5202 0003971  24.8515 335.2668 15.08852504 27207,6917.842,95.437,542.4540000000002,536.96,0.0
52849.0,STARLINK-4197,PAYLOAD,2022-12-12 06:16:54,15.08851446,0.0003061,53.2184,296.7315,27.4361,332.6792,0.00036837,5.581e-05,0.0,0 STARLINK-4197,1 52849U 22062V   22346.26173723  .00005581  00000-0  36837-3 0  9997,2 52849  53.2184 296.7315 0003061  27.4361 332.6792 15.08851446 27754,6917.845,95.437,541.828,537.5930000000002,0.0
52849.0,STARLINK-4197,PAYLOAD,2022-12-13 02:56:54,15.08839566,0.0003526999999999,53.2169,292.8688,26.86,333.2575,-3.2499e-05,-8.06e-06,0.0,0 STARLINK-4197,1 52849U 22062V   22347.12285878 -.00000806  00000-0 -32499-4 0  9996,2 52849  53.2169 292.8688 0003527  26.8600 333.2575 15.08839566 27882,6917.882,95.438,542.187,537.307,0.0
52849.0,STARLINK-4197,PAYLOAD,2022-12-13 14:04:37,15.08838843,0.00034,53.2179,290.7865,28.0822,332.0353,2.8394e-05,1.63e-06,0.0,0 STARLINK-4197,1 52849U 22062V   22347.58654082  .00000163  00000-0  28394-4 0  9996,2 52849  53.2179 290.7865 0003400  28.0822 332.0353 15.08838843 27469,6917.884,95.438,542.101,537.3969999999998,0.0
52849.0,STARLINK-4197,PAYLOAD,2022-12-14 02:47:42,15.08832883,0.0003262,53.2183,288.4068,23.2582,336.8557,-6.498100000000001e-05,-1.323e-05,0.0,0 STARLINK-4197,1 52849U 22062V   22348.11646110 -.00001323  00000-0 -64981-4 0  9992,2 52849  53.2183 288.4068 0003262  23.2582 336.8557 15.08832883 27544,6917.901999999999,95.438,542.024,537.511,0.0
52849.0,STARLINK-4197,PAYLOAD,2022-12-14 20:16:56,15.08841917,0.0003405,53.2174,285.1369,22.6257,337.4885,0.00020322,2.947e-05,0.0,0 STARLINK-4197,1 52849U 22062V   22348.84509811  .00002947  00000-0  20322-3 0  9999,2 52849  53.2174 285.1369 0003405  22.6257 337.4885 15.08841917 27654,6917.875,95.437,542.095,537.384,0.0
52849.0,STARLINK-4197,PAYLOAD,2022-12-15 07:24:38,15.08843176,0.0003369,53.2179,283.0553,24.3457,335.7694,0.00019733,2.854e-05,0.0,0 STARLINK-4197,1 52849U 22062V   22349.30877880  .00002854  00000-0  19733-3 0  9996,2 52849  53.2179 283.0553 0003369  24.3457 335.7694 15.08843176 27727,6917.871,95.437,542.066,537.405,0.0
52849.0,STARLINK-4197,PAYLOAD,2022-12-15 20:07:43,15.08848785,0.000337,53.2178,280.6766,24.0919,336.023,0.00035073,5.299e-05,0.0,0 STARLINK-4197,1 52849U 22062V   22349.83869584  .00005299  00000-0  35073-3 0  9997,2 52849  53.2178 280.6766 0003370  24.0919 336.0230 15.08848785 27807,6917.854,95.437,542.05,537.387,0.0
52849.0,STARLINK-4197,PAYLOAD,2022-12-16 00:53:52,15.08851572,0.0003391,53.2176,279.7849,24.2569,335.8583,0.00038479,5.843e-05,0.0,0 STARLINK-4197,1 52849U 22062V   22350.03741460  .00005843  00000-0  38479-3 0  9991,2 52849  53.2176 279.7849 0003391  24.2569 335.8583 15.08851572 28326,6917.845,95.437,542.056,537.364,0.0
52849.0,STARLINK-4197,PAYLOAD,2022-12-16 12:01:34,15.08850595,0.0003362,53.217,277.7042,22.9354,337.1788,0.00018551,2.666e-05,0.0,0 STARLINK-4197,1 52849U 22062V   22350.50109263  .00002666  00000-0  18551-3 0  9991,2 52849  53.2170 277.7042 0003362  22.9354 337.1788 15.08850595 27907,6917.848000000001,95.437,542.039,537.387,0.0
